OBJECT_NAME,OBJECT_ID,EPOCH,MEAN_MOTION,ECCENTRICITY,INCLINATION,RA_OF_ASC_NODE,ARG_OF_PERICENTER,MEAN_ANOMALY,EPHEMERIS_TYPE,CLASSIFICATION_TYPE,NORAD_CAT_ID,ELEMENT_SET_NO,REV_AT_EPOCH,BSTAR,MEAN_MOTION_DOT,MEAN_MOTION_DDOT
ONEWEB-0365,2021-090N,2026-07-17T19:36:01.893312,13.19726580,.00020952,87.9195,298.8693,103.2155,256.9212,0,U,49291,999,23046,-.20974169E-3,-.71E-6,0
ONEWEB-0366,2021-090P,2026-07-17T15:42:42.385536,13.14502332,.00020364,87.8967,283.6362,98.3456,261.7905,0,U,49292,999,23156,-.6411623E-3,-.225E-5,0
ONEWEB-0367,2021-090Q,2026-07-17T22:05:23.417952,13.20772794,.00022513,87.9185,268.3169,100.4719,259.6669,0,U,49293,999,23388,.17094024E-4,.2E-6,0
ONEWEB-0368,2021-090R,2026-07-17T16:00:34.142112,13.20771801,.00016713,87.9173,268.3751,115.6051,244.5255,0,U,49294,999,23500,.38872481E-4,.29E-6,0
ONEWEB-0369,2021-090S,2026-07-17T19:29:12.461856,13.19726411,.00019869,87.9184,298.8756,103.3544,256.7810,0,U,49295,999,23045,-.73523184E-4,-.16E-6,0
ONEWEB-0370,2021-090T,2026-07-17T11:24:11.828160,13.20771847,.0002314,87.9184,268.4050,93.9418,266.1979,0,U,49296,999,23386,.17632E-3,.85E-6,0
ONEWEB-0371,2021-090U,2026-07-17T19:40:34.914720,13.19725261,.00020891,87.9193,298.8684,101.7542,258.3826,0,U,49297,999,23049,.3261304E-4,.26E-6,0
ONEWEB-0372,2021-090V,2026-07-17T22:03:58.974912,13.20768981,.00021179,87.9183,268.3185,99.1938,260.9435,0,U,49298,999,23389,.1276042E-3,.65E-6,0
ONEWEB-0373,2021-090W,2026-07-17T15:24:10.398528,13.20773292,.00020713,87.9183,268.3732,96.0966,264.0403,0,U,49299,999,23504,-.11745316E-3,-.35E-6,0
ONEWEB-0374,2021-090X,2026-07-17T19:03:38.257056,13.14502761,.00015143,87.8970,283.6002,88.8995,271.2308,0,U,49300,999,23158,-.28116428E-3,-.91E-6,0
ONEWEB-0375,2021-090Y,2026-07-17T22:23:34.071936,13.20772909,.00016175,87.9187,268.3071,87.1993,272.9325,0,U,49301,999,23458,.41311685E-4,.3E-6,0
ONEWEB-0376,2021-090Z,2026-07-17T19:38:17.518848,13.19726791,.00021146,87.9193,298.8687,105.8952,254.2414,0,U,49302,999,23049,-.84114032E-4,-.21E-6,0
ONEWEB-0377,2021-090AA,2026-07-17T11:09:49.214016,13.20768478,.0002611,87.9234,268.4047,98.7467,261.3962,0,U,49303,999,23451,.14695E-2,.61E-5,0
ONEWEB-0378,2021-090AB,2026-07-17T15:17:07.710720,13.20771765,.00019158,87.9180,268.3719,97.5972,262.5379,0,U,49304,999,23380,-.77933424E-4,-.19E-6,0
ONEWEB-0379,2021-090AC,2026-07-17T22:36:01.122624,13.14501792,.00019111,87.8967,283.5811,99.3040,260.8306,0,U,49305,999,23160,-.33905057E-3,-.113E-5,0
ONEWEB-0380,2021-090AD,2026-07-17T19:33:45.499680,13.19726880,.00020342,87.9185,298.8724,96.4656,263.6709,0,U,49306,999,23046,-.19091728E-3,-.63E-6,0
ONEWEB-0381,2021-090AE,2026-07-17T14:42:57.513024,13.20769480,.0001829,87.9183,268.3781,94.6751,265.4592,0,U,49307,999,23384,.7123E-4,.42E-6,0
ONEWEB-0382,2021-090AF,2026-07-17T14:23:35.686176,13.20771688,.0001773,87.9182,268.3745,97.7228,262.4106,0,U,49308,999,23383,-.97151E-4,-.27E-6,0
ONEWEB-0383,2021-090AG,2026-07-17T18:47:39.875424,13.14502447,.00018798,87.8972,283.6048,102.2221,257.9120,0,U,49309,999,23161,.12045979E-3,.57E-6,0
ONEWEB-0384,2021-090AH,2026-07-17T15:54:55.988064,13.20814210,.0001612,87.9186,268.4056,100.9616,259.1698,0,U,49310,999,23385,-.13898478E-3,-.44E-6,0
ONEWEB-0385,2021-090AJ,2026-07-17T16:02:58.467264,13.20769471,.0001914,87.9185,268.3661,96.9484,263.1867,0,U,49311,999,23382,-.20155158E-3,-.69E-6,0
ONEWEB-0386,2021-090AK,2026-07-17T14:38:06.493632,13.20772997,.0001832,87.9186,268.3700,99.1869,260.9471,0,U,49312,999,23383,-.9248E-4,-.25E-6,0
ONEWEB-0387,2021-090AL,2026-07-17T14:16:18.382080,13.20769933,.0001941,87.9173,268.3906,86.9065,273.2291,0,U,49313,999,23383,.37623E-4,.28E-6,0
ONEWEB-0388,2021-090AM,2026-07-17T19:26:55.820256,13.19727001,.00018412,87.9186,298.8717,98.2860,261.8482,0,U,49314,999,23045,-.15020697E-4,.7E-7,0
ONEWEB-0389,2021-132A,2026-07-17T21:02:45.576096,13.17649859,.00016744,87.9146,359.7627,83.8076,276.3246,0,U,50469,999,22212,-.13641175E-3,-.4E-6,0
ONEWEB-0390,2021-132B,2026-07-17T21:05:11.464224,13.17648888,.00020711,87.9147,359.7635,90.7172,269.4197,0,U,50470,999,22212,-.45059563E-3,-.162E-5,0
ONEWEB-0391,2021-132C,2026-07-17T21:07:37.145856,13.17649873,.00019405,87.9148,359.7729,67.9350,292.1987,0,U,50471,999,22212,-.26788494E-4,.2E-7,0
ONEWEB-0392,2021-132D,2026-07-17T21:51:21.767904,13.17651145,.00017026,87.9159,359.7374,83.4264,276.7062,0,U,50472,999,22216,-.35319185E-4,-.1E-7,0
ONEWEB-0393,2021-132E,2026-07-17T21:16:09.047712,13.17647434,.00017744,87.9145,359.7570,88.8641,271.2693,0,U,50473,999,22215,.35072489E-4,.26E-6,0
ONEWEB-0394,2021-132F,2026-07-17T19:52:27.463296,13.18684768,.00017424,87.9199,329.3495,97.5828,262.5502,0,U,50474,999,22563,-.9482443E-5,.9E-7,0
