ONEWEB-0365             
1 49291U 21090N   26198.81668858 -.00000071  00000+0 -20974-3 0  9997
2 49291  87.9195 298.8693 0002095 103.2155 256.9212 13.19726580230468
ONEWEB-0366             
1 49292U 21090P   26198.65465724 -.00000225  00000+0 -64116-3 0  9994
2 49292  87.8967 283.6362 0002036  98.3456 261.7905 13.14502332231560
ONEWEB-0367             
1 49293U 21090Q   26198.92040993  .00000020  00000+0  17094-4 0  9997
2 49293  87.9185 268.3169 0002251 100.4719 259.6669 13.20772794233883
ONEWEB-0368             
1 49294U 21090R   26198.66706183  .00000029  00000+0  38872-4 0  9995
2 49294  87.9173 268.3751 0001671 115.6051 244.5255 13.20771801235008
ONEWEB-0369             
1 49295U 21090S   26198.81194979 -.00000016  00000+0 -73523-4 0  9997
2 49295  87.9184 298.8756 0001986 103.3544 256.7810 13.19726411230455
ONEWEB-0370             
1 49296U 21090T   26198.47513690  .00000085  00000+0  17632-3 0  9997
2 49296  87.9184 268.4050 0002314  93.9418 266.1979 13.20771847233860
ONEWEB-0371             
1 49297U 21090U   26198.81984855  .00000026  00000+0  32613-4 0  9993
2 49297  87.9193 298.8684 0002089 101.7542 258.3826 13.19725261230493
ONEWEB-0372             
1 49298U 21090V   26198.91943258  .00000065  00000+0  12760-3 0  9990
2 49298  87.9183 268.3185 0002117  99.1938 260.9435 13.20768981233892
ONEWEB-0373             
1 49299U 21090W   26198.64178702 -.00000035  00000+0 -11745-3 0  9996
2 49299  87.9183 268.3732 0002071  96.0966 264.0403 13.20773292235047
ONEWEB-0374             
1 49300U 21090X   26198.79419279 -.00000091  00000+0 -28116-3 0  9994
2 49300  87.8970 283.6002 0001514  88.8995 271.2308 13.14502761231588
ONEWEB-0375             
1 49301U 21090Y   26198.93303324  .00000030  00000+0  41312-4 0  9999
2 49301  87.9187 268.3071 0001617  87.1993 272.9325 13.20772909234580
ONEWEB-0376             
1 49302U 21090Z   26198.81825832 -.00000021  00000+0 -84114-4 0  9999
2 49302  87.9193 298.8687 0002114 105.8952 254.2414 13.19726791230499
ONEWEB-0377             
1 49303U 21090AA  26198.46515294  .00000610  00000+0  14695-2 0  9996
2 49303  87.9234 268.4047 0002611  98.7467 261.3962 13.20768478234516
ONEWEB-0378             
1 49304U 21090AB  26198.63689480 -.00000019  00000+0 -77933-4 0  9996
2 49304  87.9180 268.3719 0001915  97.5972 262.5379 13.20771765233805
ONEWEB-0379             
1 49305U 21090AC  26198.94167966 -.00000113  00000+0 -33905-3 0  9996
2 49305  87.8967 283.5811 0001911  99.3040 260.8306 13.14501792231603
ONEWEB-0380             
1 49306U 21090AD  26198.81510995 -.00000063  00000+0 -19092-3 0  9992
2 49306  87.9185 298.8724 0002034  96.4656 263.6709 13.19726880230460
ONEWEB-0381             
1 49307U 21090AE  26198.61316566  .00000042  00000+0  71230-4 0  9997
2 49307  87.9183 268.3781 0001829  94.6751 265.4592 13.20769480233841
ONEWEB-0382             
1 49308U 21090AF  26198.59971859 -.00000027  00000+0 -97151-4 0  9992
2 49308  87.9182 268.3745 0001773  97.7228 262.4106 13.20771688233832
ONEWEB-0383             
1 49309U 21090AG  26198.78310041  .00000057  00000+0  12046-3 0  9994
2 49309  87.8972 283.6048 0001879 102.2221 257.9120 13.14502447231614
ONEWEB-0384             
1 49310U 21090AH  26198.66314801 -.00000044  00000+0 -13898-3 0  9995
2 49310  87.9186 268.4056 0001612 100.9616 259.1698 13.20814210233855
ONEWEB-0385             
1 49311U 21090AJ  26198.66873226 -.00000069  00000+0 -20155-3 0  9998
2 49311  87.9185 268.3661 0001914  96.9484 263.1867 13.20769471233826
ONEWEB-0386             
1 49312U 21090AK  26198.60979738 -.00000025  00000+0 -92480-4 0  9991
2 49312  87.9186 268.3700 0001832  99.1869 260.9471 13.20772997233837
ONEWEB-0387             
1 49313U 21090AL  26198.59465720  .00000028  00000+0  37623-4 0  9990
2 49313  87.9173 268.3906 0001941  86.9065 273.2291 13.20769933233838
ONEWEB-0388             
1 49314U 21090AM  26198.81036829  .00000007  00000+0 -15021-4 0  9996
2 49314  87.9186 298.8717 0001841  98.2860 261.8482 13.19727001230457
ONEWEB-0389             
1 50469U 21132A   26198.87691639 -.00000040  00000+0 -13641-3 0  9991
2 50469  87.9146 359.7627 0001674  83.8076 276.3246 13.17649859222122
ONEWEB-0390             
1 50470U 21132B   26198.87860491 -.00000162  00000+0 -45060-3 0  9992
2 50470  87.9147 359.7635 0002071  90.7172 269.4197 13.17648888222129
ONEWEB-0391             
1 50471U 21132C   26198.88029104  .00000002  00000+0 -26788-4 0  9991
2 50471  87.9148 359.7729 0001940  67.9350 292.1987 13.17649873222128
ONEWEB-0392             
1 50472U 21132D   26198.91066861 -.00000001  00000+0 -35319-4 0  9997
2 50472  87.9159 359.7374 0001702  83.4264 276.7062 13.17651145222161
ONEWEB-0393             
1 50473U 21132E   26198.88621583  .00000026  00000+0  35072-4 0  9993
2 50473  87.9145 359.7570 0001774  88.8641 271.2693 13.17647434222157
ONEWEB-0394             
1 50474U 21132F   26198.82809564  .00000009  00000+0 -94824-5 0  9998
2 50474  87.9199 329.3495 0001742  97.5828 262.5502 13.18684768225635
